<?xml version="1.0" encoding="UTF-8"?>
<ndm xmlns:xsi="http://www.w3.org/2001/XMLSchema-instance" xsi:noNamespaceSchemaLocation="https://sanaregistry.org/r/ndmxml_unqualified/ndmxml-2.0.0-master-2.0.xsd">
<omm id="CCSDS_OMM_VERS" version="2.0">
<header><CREATION_DATE/><ORIGINATOR/></header><body><segment><metadata><OBJECT_NAME>ONEWEB-0674</OBJECT_NAME><OBJECT_ID>2023-029AP</OBJECT_ID><CENTER_NAME>EARTH</CENTER_NAME><REF_FRAME>TEME</REF_FRAME><TIME_SYSTEM>UTC</TIME_SYSTEM><MEAN_ELEMENT_THEORY>SGP4</MEAN_ELEMENT_THEORY></metadata><data><meanElements><EPOCH>2025-12-20T09:07:03.091296</EPOCH><MEAN_MOTION>13.14504265</MEAN_MOTION><ECCENTRICITY>.00023003</ECCENTRICITY><INCLINATION>87.8988</INCLINATION><RA_OF_ASC_NODE>325.3575</RA_OF_ASC_NODE><ARG_OF_PERICENTER>87.0013</ARG_OF_PERICENTER><MEAN_ANOMALY>273.1380</MEAN_ANOMALY></meanElements><tleParameters><EPHEMERIS_TYPE>0</EPHEMERIS_TYPE><CLASSIFICATION_TYPE>U</CLASSIFICATION_TYPE><NORAD_CAT_ID>55833</NORAD_CAT_ID><ELEMENT_SET_NO>999</ELEMENT_SET_NO><REV_AT_EPOCH>13592</REV_AT_EPOCH><BSTAR>.71510675E-3</BSTAR><MEAN_MOTION_DOT>.278E-5</MEAN_MOTION_DOT><MEAN_MOTION_DDOT>0</MEAN_MOTION_DDOT></tleParameters></data></segment></body></omm>
<omm id="CCSDS_OMM_VERS" version="2.0">
<header><CREATION_DATE/><ORIGINATOR/></header><body><segment><metadata><OBJECT_NAME>ONEWEB-0675</OBJECT_NAME><OBJECT_ID>2023-029AQ</OBJECT_ID><CENTER_NAME>EARTH</CENTER_NAME><REF_FRAME>TEME</REF_FRAME><TIME_SYSTEM>UTC</TIME_SYSTEM><MEAN_ELEMENT_THEORY>SGP4</MEAN_ELEMENT_THEORY></metadata><data><meanElements><EPOCH>2025-12-20T23:05:13.895232</EPOCH><MEAN_MOTION>13.19725263</MEAN_MOTION><ECCENTRICITY>.0001516</ECCENTRICITY><INCLINATION>87.9196</INCLINATION><RA_OF_ASC_NODE>340.4489</RA_OF_ASC_NODE><ARG_OF_PERICENTER>82.7243</ARG_OF_PERICENTER><MEAN_ANOMALY>277.4062</MEAN_ANOMALY></meanElements><tleParameters><EPHEMERIS_TYPE>0</EPHEMERIS_TYPE><CLASSIFICATION_TYPE>U</CLASSIFICATION_TYPE><NORAD_CAT_ID>55834</NORAD_CAT_ID><ELEMENT_SET_NO>999</ELEMENT_SET_NO><REV_AT_EPOCH>13541</REV_AT_EPOCH><BSTAR>-.11806E-3</BSTAR><MEAN_MOTION_DOT>-.34E-6</MEAN_MOTION_DOT><MEAN_MOTION_DDOT>0</MEAN_MOTION_DDOT></tleParameters></data></segment></body></omm>
<omm id="CCSDS_OMM_VERS" version="2.0">
<header><CREATION_DATE/><ORIGINATOR/></header><body><segment><metadata><OBJECT_NAME>ONEWEB-0720</OBJECT_NAME><OBJECT_ID>2023-029AR</OBJECT_ID><CENTER_NAME>EARTH</CENTER_NAME><REF_FRAME>TEME</REF_FRAME><TIME_SYSTEM>UTC</TIME_SYSTEM><MEAN_ELEMENT_THEORY>SGP4</MEAN_ELEMENT_THEORY></metadata><data><meanElements><EPOCH>2025-12-21T06:10:33.513312</EPOCH><MEAN_MOTION>13.19725816</MEAN_MOTION><ECCENTRICITY>.00019881</ECCENTRICITY><INCLINATION>87.9194</INCLINATION><RA_OF_ASC_NODE>340.3889</RA_OF_ASC_NODE><ARG_OF_PERICENTER>75.9939</ARG_OF_PERICENTER><MEAN_ANOMALY>284.1415</MEAN_ANOMALY></meanElements><tleParameters><EPHEMERIS_TYPE>0</EPHEMERIS_TYPE><CLASSIFICATION_TYPE>U</CLASSIFICATION_TYPE><NORAD_CAT_ID>55835</NORAD_CAT_ID><ELEMENT_SET_NO>999</ELEMENT_SET_NO><REV_AT_EPOCH>13537</REV_AT_EPOCH><BSTAR>.21158649E-3</BSTAR><MEAN_MOTION_DOT>.98E-6</MEAN_MOTION_DOT><MEAN_MOTION_DDOT>0</MEAN_MOTION_DDOT></tleParameters></data></segment></body></omm>
<omm id="CCSDS_OMM_VERS" version="2.0">
<header><CREATION_DATE/><ORIGINATOR/></header><body><segment><metadata><OBJECT_NAME>ONEWEB-0537</OBJECT_NAME><OBJECT_ID>2023-043A</OBJECT_ID><CENTER_NAME>EARTH</CENTER_NAME><REF_FRAME>TEME</REF_FRAME><TIME_SYSTEM>UTC</TIME_SYSTEM><MEAN_ELEMENT_THEORY>SGP4</MEAN_ELEMENT_THEORY></metadata><data><meanElements><EPOCH>2025-12-21T05:01:58.876608</EPOCH><MEAN_MOTION>13.16596319</MEAN_MOTION><ECCENTRICITY>.00014275</ECCENTRICITY><INCLINATION>87.9053</INCLINATION><RA_OF_ASC_NODE>264.2096</RA_OF_ASC_NODE><ARG_OF_PERICENTER>76.7038</ARG_OF_PERICENTER><MEAN_ANOMALY>283.4252</MEAN_ANOMALY></meanElements><tleParameters><EPHEMERIS_TYPE>0</EPHEMERIS_TYPE><CLASSIFICATION_TYPE>U</CLASSIFICATION_TYPE><NORAD_CAT_ID>56046</NORAD_CAT_ID><ELEMENT_SET_NO>999</ELEMENT_SET_NO><REV_AT_EPOCH>13554</REV_AT_EPOCH><BSTAR>.43754829E-3</BSTAR><MEAN_MOTION_DOT>.18E-5</MEAN_MOTION_DOT><MEAN_MOTION_DDOT>0</MEAN_MOTION_DDOT></tleParameters></data></segment></body></omm>
<omm id="CCSDS_OMM_VERS" version="2.0">
<header><CREATION_DATE/><ORIGINATOR/></header><body><segment><metadata><OBJECT_NAME>ONEWEB-0538</OBJECT_NAME><OBJECT_ID>2023-043B</OBJECT_ID><CENTER_NAME>EARTH</CENTER_NAME><REF_FRAME>TEME</REF_FRAME><TIME_SYSTEM>UTC</TIME_SYSTEM><MEAN_ELEMENT_THEORY>SGP4</MEAN_ELEMENT_THEORY></metadata><data><meanElements><EPOCH>2025-12-21T04:52:50.726496</EPOCH><MEAN_MOTION>13.16597492</MEAN_MOTION><ECCENTRICITY>.00014667</ECCENTRICITY><INCLINATION>87.9045</INCLINATION><RA_OF_ASC_NODE>264.2147</RA_OF_ASC_NODE><ARG_OF_PERICENTER>65.5804</ARG_OF_PERICENTER><MEAN_ANOMALY>294.5480</MEAN_ANOMALY></meanElements><tleParameters><EPHEMERIS_TYPE>0</EPHEMERIS_TYPE><CLASSIFICATION_TYPE>U</CLASSIFICATION_TYPE><NORAD_CAT_ID>56047</NORAD_CAT_ID><ELEMENT_SET_NO>999</ELEMENT_SET_NO><REV_AT_EPOCH>13555</REV_AT_EPOCH><BSTAR>.41310169E-3</BSTAR><MEAN_MOTION_DOT>.171E-5</MEAN_MOTION_DOT><MEAN_MOTION_DDOT>0</MEAN_MOTION_DDOT></tleParameters></data></segment></body></omm>
<omm id="CCSDS_OMM_VERS" version="2.0">
<header><CREATION_DATE/><ORIGINATOR/></header><body><segment><metadata><OBJECT_NAME>ONEWEB-0546</OBJECT_NAME><OBJECT_ID>2023-043C</OBJECT_ID><CENTER_NAME>EARTH</CENTER_NAME><REF_FRAME>TEME</REF_FRAME><TIME_SYSTEM>UTC</TIME_SYSTEM><MEAN_ELEMENT_THEORY>SGP4</MEAN_ELEMENT_THEORY></metadata><data><meanElements><EPOCH>2025-12-21T04:34:36.898176</EPOCH><MEAN_MOTION>13.16596669</MEAN_MOTION><ECCENTRICITY>.00011982</ECCENTRICITY><INCLINATION>87.9057</INCLINATION><RA_OF_ASC_NODE>264.2097</RA_OF_ASC_NODE><ARG_OF_PERICENTER>95.4662</ARG_OF_PERICENTER><MEAN_ANOMALY>264.6606</MEAN_ANOMALY></meanElements><tleParameters><EPHEMERIS_TYPE>0</EPHEMERIS_TYPE><CLASSIFICATION_TYPE>U</CLASSIFICATION_TYPE><NORAD_CAT_ID>56048</NORAD_CAT_ID><ELEMENT_SET_NO>999</ELEMENT_SET_NO><REV_AT_EPOCH>13554</REV_AT_EPOCH><BSTAR>.28359152E-3</BSTAR><MEAN_MOTION_DOT>.121E-5</MEAN_MOTION_DOT><MEAN_MOTION_DDOT>0</MEAN_MOTION_DDOT></tleParameters></data></segment></body></omm>
<omm id="CCSDS_OMM_VERS" version="2.0">
<header><CREATION_DATE/><ORIGINATOR/></header><body><segment><metadata><OBJECT_NAME>ONEWEB-0547</OBJECT_NAME><OBJECT_ID>2023-043D</OBJECT_ID><CENTER_NAME>EARTH</CENTER_NAME><REF_FRAME>TEME</REF_FRAME><TIME_SYSTEM>UTC</TIME_SYSTEM><MEAN_ELEMENT_THEORY>SGP4</MEAN_ELEMENT_THEORY></metadata><data><meanElements><EPOCH>2025-12-21T05:03:46.925856</EPOCH><MEAN_MOTION>13.21825842</MEAN_MOTION><ECCENTRICITY>.00017422</ECCENTRICITY><INCLINATION>87.9224</INCLINATION><RA_OF_ASC_NODE>279.4725</RA_OF_ASC_NODE><ARG_OF_PERICENTER>69.9609</ARG_OF_PERICENTER><MEAN_ANOMALY>290.1712</MEAN_ANOMALY></meanElements><tleParameters><EPHEMERIS_TYPE>0</EPHEMERIS_TYPE><CLASSIFICATION_TYPE>U</CLASSIFICATION_TYPE><NORAD_CAT_ID>56049</NORAD_CAT_ID><ELEMENT_SET_NO>999</ELEMENT_SET_NO><REV_AT_EPOCH>13471</REV_AT_EPOCH><BSTAR>-.29363971E-4</BSTAR><MEAN_MOTION_DOT>.1E-7</MEAN_MOTION_DOT><MEAN_MOTION_DDOT>0</MEAN_MOTION_DDOT></tleParameters></data></segment></body></omm>
<omm id="CCSDS_OMM_VERS" version="2.0">
<header><CREATION_DATE/><ORIGINATOR/></header><body><segment><metadata><OBJECT_NAME>ONEWEB-0548</OBJECT_NAME><OBJECT_ID>2023-043E</OBJECT_ID><CENTER_NAME>EARTH</CENTER_NAME><REF_FRAME>TEME</REF_FRAME><TIME_SYSTEM>UTC</TIME_SYSTEM><MEAN_ELEMENT_THEORY>SGP4</MEAN_ELEMENT_THEORY></metadata><data><meanElements><EPOCH>2025-12-21T03:20:31.789248</EPOCH><MEAN_MOTION>13.16595221</MEAN_MOTION><ECCENTRICITY>.00020568</ECCENTRICITY><INCLINATION>87.9041</INCLINATION><RA_OF_ASC_NODE>264.2255</RA_OF_ASC_NODE><ARG_OF_PERICENTER>81.5745</ARG_OF_PERICENTER><MEAN_ANOMALY>278.5619</MEAN_ANOMALY></meanElements><tleParameters><EPHEMERIS_TYPE>0</EPHEMERIS_TYPE><CLASSIFICATION_TYPE>U</CLASSIFICATION_TYPE><NORAD_CAT_ID>56050</NORAD_CAT_ID><ELEMENT_SET_NO>999</ELEMENT_SET_NO><REV_AT_EPOCH>13553</REV_AT_EPOCH><BSTAR>.16080078E-3</BSTAR><MEAN_MOTION_DOT>.74E-6</MEAN_MOTION_DOT><MEAN_MOTION_DDOT>0</MEAN_MOTION_DDOT></tleParameters></data></segment></body></omm>

</ndm>
