ONEWEB-0674             
1 55833U 23029AP  25354.37989689  .00000278  00000+0  71511-3 0  9992
2 55833  87.8988 325.3575 0002300  87.0013 273.1380 13.14504265135923
ONEWEB-0675             
1 55834U 23029AQ  25354.96196638 -.00000034  00000+0 -11806-3 0  9995
2 55834  87.9196 340.4489 0001516  82.7243 277.4062 13.19725263135419
ONEWEB-0720             
1 55835U 23029AR  25355.25733233  .00000098  00000+0  21159-3 0  9997
2 55835  87.9194 340.3889 0001988  75.9939 284.1415 13.19725816135376
ONEWEB-0537             
1 56046U 23043A   25355.20970922  .00000180  00000+0  43755-3 0  9999
2 56046  87.9053 264.2096 0001427  76.7038 283.4252 13.16596319135547
ONEWEB-0538             
1 56047U 23043B   25355.20336489  .00000171  00000+0  41310-3 0  9999
2 56047  87.9045 264.2147 0001466  65.5804 294.5480 13.16597492135556
ONEWEB-0546             
1 56048U 23043C   25355.19070484  .00000121  00000+0  28359-3 0  9991
2 56048  87.9057 264.2097 0001198  95.4662 264.6606 13.16596669135542
ONEWEB-0547             
1 56049U 23043D   25355.21095979  .00000001  00000+0 -29364-4 0  9997
2 56049  87.9224 279.4725 0001742  69.9609 290.1712 13.21825842134711
ONEWEB-0548             
1 56050U 23043E   25355.13925682  .00000074  00000+0  16080-3 0  9992
2 56050  87.9041 264.2255 0002056  81.5745 278.5619 13.16595221135536
